GPS BIIR-2  (PRN 13)    
1 24876C 97035A   23073.70201389 -.00000000  00000-0  00000-0 0   730
2 24876  55.5514 145.1259 0066114  51.7959  27.8721  2.00564037    10
GPS BIIR-4  (PRN 20)    
1 26360C 00025A   23073.70201389 -.00000000  00000-0  00000-0 0   733
2 26360  54.2852  67.7259 0044200 197.0051 330.8349  2.00552189    17
GPS BIIR-8  (PRN 16)    
1 27663C 03005A   23073.70201389  .00000000  00000-0  00000-0 0   730
2 27663  55.3419 262.3175 0132440  43.8197 100.1783  2.00576033    12
GPS BIIR-9  (PRN 21)    
1 27704C 03010A   23073.70201389 -.00000000  00000-0  00000-0 0   733
2 27704  55.0973  12.3792 0249723 313.9297  48.8959  2.00567093    12
GPS BIIR-11 (PRN 19)    
1 28190C 04009A   23073.70201389  .00000000  00000-0  00000-0 0   731
2 28190  55.8224 323.3585 0090102 129.9129 172.1039  2.00571166    14
GPS BIIR-13 (PRN 02)    
1 28474C 04045A   23073.70201389 -.00000000  00000-0  00000-0 0   737
2 28474  55.4224  12.6225 0201189 284.2272 227.5905  2.00562500    16
GPS BIIRM-1 (PRN 17)    
1 28874C 05038A   23073.70201389  .00000000  00000-0  00000-0 0   733
2 28874  55.8783 320.8032 0138271 278.8332  49.4655  2.00557319    16
GPS BIIRM-2 (PRN 31)    
1 29486C 06042A   23073.70201389  .00000000  00000-0  00000-0 0   739
2 29486  54.6942 198.5390 0105204  28.7087 213.9042  2.00503643    15
GPS BIIRM-3 (PRN 12)    
1 29601C 06052A   23073.70201389  .00000000  00000-0  00000-0 0   739
2 29601  55.3572 261.2675 0087068  76.7891 204.9633  2.00567095    15
GPS BIIRM-4 (PRN 15)    
1 32260C 07047A   23073.70201389 -.00000000  00000-0  00000-0 0   730
2 32260  53.3968 129.3391 0145378  67.4643 356.8868  2.00561210    17
GPS BIIRM-5 (PRN 29)    
1 32384C 07062A   23073.70201389  .00000000  00000-0  00000-0 0   733
2 32384  56.0056 321.6002 0021294 140.9505  52.0173  2.00576375    14
GPS BIIRM-6 (PRN 07)    
1 32711C 08012A   23073.70201389  .00000000  00000-0  00000-0 0   733
2 32711  54.4591 197.4124 0170753 233.5695 250.6256  2.00552320    14
GPS BIIRM-8 (PRN 05)    
1 35752C 09043A   23073.70201389 -.00000000  00000-0  00000-0 0   737
2 35752  55.2884  74.6658 0055732  63.6318  74.6622  2.00568801    19
GPS BIIF-1  (PRN 25)    
1 36585C 10022A   23073.70201389  .00000000  00000-0  00000-0 0   730
2 36585  54.6498 256.6003 0109774  58.8660 198.8520  2.00552799    11
GPS BIIF-2  (PRN 01)    
1 37753C 11036A   23073.70201389 -.00000000  00000-0  00000-0 0   735
2 37753  56.7054  18.1998 0123473  53.2935 285.5706  2.00566780    15
GPS BIIF-3  (PRN 24)    
1 38833C 12053A   23073.70201389  .00000000  00000-0  00000-0 0   734
2 38833  53.5172 192.2903 0135927  50.2668 301.6243  2.00564399    18
GPS BIIF-4  (PRN 27)    
1 39166C 13023A   23073.70201389  .00000000  00000-0  00000-0 0   732
2 39166  55.4970 317.0691 0113129  39.8328  53.4244  2.00564852    19
GPS BIIF-5  (PRN 30)    
1 39533C 14008A   23073.70201389  .00000000  00000-0  00000-0 0   734
2 39533  53.6069 197.8265 0063537 210.8253 240.1905  2.00568246    12
GPS BIIF-6  (PRN 06)    
1 39741C 14026A   23073.70201389 -.00000000  00000-0  00000-0 0   736
2 39741  56.6619  17.7236 0030704 311.1274 300.2208  2.00569288    14
GPS BIIF-7  (PRN 09)    
1 40105C 14045A   23073.70201389 -.00000000  00000-0  00000-0 0   733
2 40105  54.7581 136.0102 0022102 115.3767  69.2326  2.00565547    15
GPS BIIF-8  (PRN 03)    
1 40294C 14068A   23073.70201389 -.00000000  00000-0  00000-0 0   737
2 40294  56.0312  77.2786 0043387  55.9689 220.9818  2.00560011    18
GPS BIIF-9  (PRN 26)    
1 40534C 15013A   23073.70201389  .00000000  00000-0  00000-0 0   734
2 40534  53.5489 253.4891 0077929  24.7038 156.1861  2.00565204    15
GPS BIIF-10 (PRN 08)    
1 40730C 15033A   23073.70201389  .00000000  00000-0  00000-0 0   734
2 40730  54.9890 315.7674 0083565  11.8685  53.3721  2.00564156    11
GPS BIIF-11 (PRN 10)    
1 41019C 15062A   23073.70201389 -.00000000  00000-0  00000-0 0   738
2 41019  56.0172  77.1258 0086327 221.7533 163.3799  2.00562340    18
GPS BIIF-12 (PRN 32)    
1 41328C 16007A   23073.70201389 -.00000000  00000-0  00000-0 0   731
2 41328  54.9676 136.7468 0069212 233.0078  89.0835  2.00557978    12
GPS BIII-1  (PRN 04)    
1 43873C 18109A   23073.70201389 -.00000000  00000-0  00000-0 0   733
2 43873  55.1454 139.2247 0023838 192.9623  19.4612  2.00560334    12
GPS BIII-2  (PRN 18)    
1 44506C 19056A   23073.70201389 -.00000000  00000-0  00000-0 0   739
2 44506  55.7815  18.3182 0030137 185.4318 287.9593  2.00562189    16
GPS BIII-3  (PRN 23)    
1 45854C 20041A   23073.70201389 -.00000000  00000-0  00000-0 0   732
2 45854  55.7376  75.5884 0030539 187.4651 228.2671  2.00566444    10
GPS BIII-4  (PRN 14)    
1 46826C 20078A   23073.70201389  .00000000  00000-0  00000-0 0   731
2 46826  54.4037 259.1187 0028124 188.3806 203.3486  2.00563720    17
GPS BIII-5  (PRN 11)    
1 48859C 21054A   23073.70201389 -.00000000  00000-0  00000-0 0   735
2 48859  55.2943  20.1865 0008680 218.1289 356.6718  2.00558591    11
GPS BIII-6  (PRN 28)    
1 55268C 23009A   23073.70201389  .00000000  00000-0  00000-0 0   738
2 55268  55.0981 195.2240 0007059  99.6722 157.0294  2.00566814    16
